COSMOS 2425 (716)       
1 29670U 06062A   21341.63428059  .00000010  00000+0  00000+0 0  9995
2 29670  64.8014 249.6018 0024551 345.4910 192.0134  2.13110455116361
COSMOS 2433 (720)       
1 32275U 07052A   21342.70328641 -.00000066  00000+0  00000+0 0  9997
2 32275  66.0787  11.0014 0004994 242.2033 201.3475  2.13104305109904
COSMOS 2432 (719)       
1 32276U 07052B   21342.11468117 -.00000064  00000+0  00000+0 0  9994
2 32276  66.0917  11.1197 0010109 314.3059 346.4847  2.13103484109885
COSMOS 2434 (721)       
1 32393U 07065A   21342.12290668  .00000004  00000+0  00000+0 0  9996
2 32393  64.4208 247.9634 0002179  69.3103 177.8788  2.13103143108599
COSMOS 2436 (723)       
1 32395U 07065C   21342.45544466  .00000000  00000+0  00000+0 0  9998
2 32395  64.4296 248.0073 0015881 358.7004 279.5980  2.13102933108530
COSMOS 2456 (730)       
1 36111U 09070A   21342.51541216  .00000057  00000+0  00000+0 0  9995
2 36111  64.3094 127.6102 0001596 345.1143  11.4438  2.13099195 93261
COSMOS 2457 (733)       
1 36112U 09070B   21342.65264863  .00000058  00000+0  00000+0 0  9992
2 36112  64.2928 127.4861 0006839 149.8367  77.7789  2.13101417 93275
COSMOS 2459 (731)       
1 36400U 10007A   21342.24918410 -.00000064  00000+0  00000+0 0  9991
2 36400  65.9723   9.9196 0025666 345.2822 330.6512  2.13112059 91602
COSMOS 2461 (735)       
1 36401U 10007B   21342.72068513 -.00000065  00000+0  00000+0 0  9996
2 36401  65.9670   9.8670 0018643   0.8415 313.6862  2.13103696 91627
COSMOS 2460 (732)       
1 36402U 10007C   21342.31597640 -.00000064  00000+0  00000+0 0  9999
2 36402  65.9540   9.8344 0002260 242.7596  67.8692  2.13106478 91616
COSMOS 2464 (736)       
1 37139U 10041C   21341.85404366  .00000008  00000+0  00000+0 0  9992
2 37139  64.0198 247.1436 0029075   9.2723 251.2908  2.13100815 87661
COSMOS 2471 (701K)      
1 37372U 11009A   21342.46046463 -.00000065  00000+0  00000+0 0  9998
2 37372  65.9482   9.7575 0017646 231.7772 311.1355  2.13063328 83899
COSMOS 2476 (744)       
1 37867U 11064A   21342.60888141  .00000060  00000+0  00000+0 0  9995
2 37867  64.6016 128.8888 0019774 230.4726 101.6181  2.13101856 78618
COSMOS 2477 (745)       
1 37868U 11064B   21342.24609212  .00000057  00000+0  00000+0 0  9992
2 37868  64.6095 128.9635 0017088 230.5143   1.4982  2.13101691 78564
COSMOS 2475 (743)       
1 37869U 11064C   21342.31567546  .00000058  00000+0  00000+0 0  9995
2 37869  64.6166 128.9676 0020490 252.2830 350.9833  2.13101895 78578
COSMOS 2485 (747)       
1 39155U 13019A   21342.45096388  .00000059  00000+0  00000+0 0  9994
2 39155  64.7665 129.2807 0020422 226.2117  29.1886  2.13101868 67084
COSMOS 2492 (754)       
1 39620U 14012A   21342.45431988 -.00000065  00000+0  00000+0 0  9992
2 39620  65.8418   9.5367 0013347 313.6203 338.9761  2.13103276 60031
COSMOS 2500 (755)       
1 40001U 14032A   21342.93106936 -.00000066  00000+0  00000+0 0  9995
2 40001  65.7825   9.3955 0008147 212.4365 305.0708  2.13102429 58262
COSMOS 2501 (702K)      
1 40315U 14075A   21342.38701701  .00000000  00000+0  00000+0 0  9997
2 40315  63.7297 247.8664 0017249 211.3298  55.9028  2.13101329 54656
COSMOS 2514 (751)       
1 41330U 16008A   21342.76476784 -.00000066  00000+0  00000+0 0  9998
2 41330  65.5835   9.1406 0012137 218.3675 355.0331  2.13102820 45425
COSMOS 2516 (753)       
1 41554U 16032A   21342.05027205  .00000005  00000+0  00000+0 0  9997
2 41554  63.9549 248.1004 0013302 219.8905  64.4024  2.13106259 43016
COSMOS 2522 (752)       
1 42939U 17055A   21342.19103813  .00000003  00000+0  00000+0 0  9994
2 42939  64.1890 248.4343 0007697 251.1401   0.9702  2.13102134 32772
COSMOS 2527 (756)       
1 43508U 18053A   21342.58788626  .00000061  00000+0  00000+0 0  9994
2 43508  64.9301 129.2364 0007073 212.5441  16.1315  2.13102560 27071
COSMOS 2529 (757)       
1 43687U 18086A   21342.05312036  .00000005  00000+0  00000+0 0  9996
2 43687  64.4039 248.7036 0009919 272.9827 188.8552  2.13102180 24080
COSMOS 2534 (758)       
1 44299U 19030A   21341.64490103  .00000010  00000+0  00000+0 0  9998
2 44299  64.4750 248.5854 0013006 291.8023 351.5676  2.13101933 19711
COSMOS 2544 (759)       
1 44850U 19088A   21342.04323601  .00000057  00000+0  00000+0 0  9998
2 44850  64.9150 129.1112 0010049 252.9024 321.5430  2.13102332 15497
COSMOS 2545 (760)       
1 45358U 20018A   21342.42671112 -.00000067  00000+0  00000+0 0  9994
2 45358  64.9182   9.9164 0011348 246.9613 111.4399  2.13102700 13451
